[{"OBJECT_NAME":"STARLINK-34689","OBJECT_ID":"2025-158T","EPOCH":"2026-03-09T15:10:27.929280","MEAN_MOTION":15.05674471,"ECCENTRICITY":0.0002492,"INCLINATION":97.6025,"RA_OF_ASC_NODE":293.9735,"ARG_OF_PERICENTER":95.2979,"MEAN_ANOMALY":264.8532,"EPHEMERIS_TYPE":0,"CLASSIFICATION_TYPE":"U","NORAD_CAT_ID":64949,"ELEMENT_SET_NO":999,"REV_AT_EPOCH":3534,"BSTAR":0.00044821,"MEAN_MOTION_DOT":6.417e-5,"MEAN_MOTION_DDOT":0},{"OBJECT_NAME":"UNKNOWN","OBJECT_ID":"","EPOCH":"2026-03-09T02:53:57.432768","MEAN_MOTION":15.04852502,"ECCENTRICITY":0.0007482,"INCLINATION":86.6587,"RA_OF_ASC_NODE":118.2618,"ARG_OF_PERICENTER":183.1315,"MEAN_ANOMALY":176.9875,"EPHEMERIS_TYPE":0,"CLASSIFICATION_TYPE":"U","NORAD_CAT_ID":82402,"ELEMENT_SET_NO":999,"REV_AT_EPOCH":46745,"BSTAR":0.00051144,"MEAN_MOTION_DOT":7.26e-5,"MEAN_MOTION_DDOT":0}]
